NORAD_CAT_ID,OBJECT_NAME,OBJECT_TYPE,EPOCH,MEAN_MOTION,ECCENTRICITY,INCLINATION,RA_OF_ASC_NODE,ARG_OF_PERICENTER,MEAN_ANOMALY,BSTAR,MEAN_MOTION_DOT,MEAN_MOTION_DDOT,TLE_LINE0,TLE_LINE1,TLE_LINE2,SEMIMAJOR_AXIS,PERIOD,APOGEE,PERIGEE,DECAYED
52631.0,STARLINK-3794,PAYLOAD,2023-11-29 11:06:04,15.08848964,0.0002207,53.2167,40.6681,51.3976,308.7214,0.00056607,8.735e-05,0.0,0 STARLINK-3794,1 52631U 22052AK  23333.46255722  .00008735  00000-0  56607-3 0  9995,2 52631  53.2167  40.6681 0002207  51.3976 308.7214 15.08848964 85887,6917.853,95.437,541.245,538.191,0.0
52631.0,STARLINK-3794,PAYLOAD,2023-11-30 10:56:50,15.08858186,0.0001546,53.2179,36.193,83.4323,276.6845,8.9076e-05,1.131e-05,0.0,0 STARLINK-3794,1 52631U 22052AK  23334.45614535  .00001131  00000-0  89076-4 0  9996,2 52631  53.2179  36.1930 0001546  83.4323 276.6845 15.08858186 86032,6917.825,95.436,540.759,538.62,0.0
52631.0,STARLINK-3794,PAYLOAD,2023-12-01 10:47:38,15.08853413,0.0003243,53.219,31.7336,44.819,315.3064,-2.8912e-05,-7.49e-06,0.0,0 STARLINK-3794,1 52631U 22052AK  23335.44975001 -.00000749  00000-0 -28912-4 0  9992,2 52631  53.2190  31.7336 0003243  44.8190 315.3064 15.08853413 86183,6917.839,95.437,541.948,537.461,0.0
52631.0,STARLINK-3794,PAYLOAD,2023-12-02 10:38:25,15.08826083,0.0001607,53.2185,27.275,94.8411,265.2765,-0.0002125,-3.667e-05,0.0,0 STARLINK-3794,1 52631U 22052AK  23336.44334600 -.00003667  00000-0 -21250-3 0  9996,2 52631  53.2185  27.2750 0001607  94.8411 265.2765 15.08826083 86331,6917.923,95.438,540.9,538.676,0.0
52631.0,STARLINK-3794,PAYLOAD,2023-12-03 08:53:50,15.08810985,0.0001562,53.2185,23.1133,113.9428,246.1728,-0.00040638,-6.745e-05,0.0,0 STARLINK-3794,1 52631U 22052AK  23337.37072626 -.00006745  00000-0 -40638-3 0  9997,2 52631  53.2185  23.1133 0001562 113.9428 246.1728 15.08810985 86478,6917.969,95.439,540.915,538.753,0.0
52631.0,STARLINK-3794,PAYLOAD,2023-12-04 02:23:05,15.08824373,9.83e-05,53.2183,19.838,85.0338,275.0767,0.0001559,2.193e-05,0.0,0 STARLINK-3794,1 52631U 22052AK  23338.09936589  .00002193  00000-0  15590-3 0  9994,2 52631  53.2183  19.8380 0000983  85.0338 275.0767 15.08824373 86589,6917.928,95.439,540.473,539.113,0.0
52631.0,STARLINK-3794,PAYLOAD,2023-12-04 10:19:59,15.08845362,0.0001068,53.2191,18.3509,69.1585,290.9521,0.00029021,4.335e-05,0.0,0 STARLINK-3794,1 52631U 22052AK  23338.43054908  .00004335  00000-0  29021-3 0  9992,2 52631  53.2191  18.3509 0001068  69.1585 290.9521 15.08845362 86638,6917.864,95.437,540.468,538.99,0.0
52631.0,STARLINK-3794,PAYLOAD,2023-12-05 02:13:51,15.08822406,0.0001915,53.2187,15.3799,39.0473,321.0657,0.0006198,9.585e-05,0.0,0 STARLINK-3794,1 52631U 22052AK  23339.09296118  .00009585  00000-0  61980-3 0  9998,2 52631  53.2187  15.3799 0001915  39.0473 321.0657 15.08822406 86735,6917.934,95.439,541.124,538.474,0.0
52631.0,STARLINK-3794,PAYLOAD,2023-12-05 11:46:10,15.08843724,0.0001316,53.2193,13.5945,83.3953,276.7189,0.00034647,5.231e-05,0.0,0 STARLINK-3794,1 52631U 22052AK  23339.49039584  .00005231  00000-0  34647-3 0  9998,2 52631  53.2193  13.5945 0001316  83.3953 276.7189 15.08843724 86793,6917.869,95.437,540.644,538.824,0.0
52631.0,STARLINK-3794,PAYLOAD,2023-12-06 02:04:38,15.08849507,0.0001349,53.2191,10.9184,70.8416,289.2722,-2.5791e-05,-6.98e-06,0.0,0 STARLINK-3794,1 52631U 22052AK  23340.08655987 -.00000698  00000-0 -25791-4 0  9991,2 52631  53.2191  10.9184 0001349  70.8416 289.2722 15.08849507 86885,6917.851,95.437,540.65,538.783,0.0
52631.0,STARLINK-3794,PAYLOAD,2023-12-06 08:26:10,15.08852944,0.0001305,53.2191,9.7285,86.5206,273.5935,-1.4319e-05,-5.16e-06,0.0,0 STARLINK-3794,1 52631U 22052AK  23340.35151403 -.00000516  00000-0 -14319-4 0  9998,2 52631  53.2191   9.7285 0001305  86.5206 273.5935 15.08852944 86551,6917.841,95.437,540.609,538.803,0.0
52631.0,STARLINK-3794,PAYLOAD,2023-12-07 11:27:43,15.08846501,0.0001349,53.2181,4.6729,81.9123,278.2022,-2.0604e-05,-6.16e-06,0.0,0 STARLINK-3794,1 52631U 22052AK  23341.47759237 -.00000616  00000-0 -20604-4 0  9996,2 52631  53.2181   4.6729 0001349  81.9123 278.2022 15.08846501 87093,6917.861,95.437,540.659,538.792,0.0
52631.0,STARLINK-3794,PAYLOAD,2023-12-08 01:46:12,15.08836186,0.000146,53.2175,1.9981,81.3676,278.7481,3.0338e-05,1.95e-06,0.0,0 STARLINK-3794,1 52631U 22052AK  23342.07375704  .00000195  00000-0  30338-4 0  9991,2 52631  53.2175   1.9981 0001460  81.3676 278.7481 15.08836186 87189,6917.892,95.438,540.767,538.747,0.0
52631.0,STARLINK-3794,PAYLOAD,2023-12-08 08:07:45,15.08837386,0.0001593,53.219,0.8091,102.1046,258.0125,3.7159e-05,3.03e-06,0.0,0 STARLINK-3794,1 52631U 22052AK  23342.33871566  .00000303  00000-0  37159-4 0  9996,2 52631  53.2190   0.8091 0001593 102.1046 258.0125 15.08837386 86858,6917.888,95.438,540.855,538.651,0.0
52631.0,STARLINK-3794,PAYLOAD,2023-12-08 22:26:13,15.0883579,0.0001517,53.2181,358.1296,93.6864,266.4301,4.2828e-05,3.94e-06,0.0,0 STARLINK-3794,1 52631U 22052AK  23342.93487731  .00000394  00000-0  42828-4 0  9998,2 52631  53.2181 358.1296 0001517  93.6864 266.4301 15.08835790 86948,6917.893,95.438,540.808,538.709,0.0
52631.0,STARLINK-3794,PAYLOAD,2023-12-09 06:23:09,15.08836742,0.0001521,53.2182,356.6441,89.6812,270.4354,4.657e-05,4.53e-06,0.0,0 STARLINK-3794,1 52631U 22052AK  23343.26607775  .00000453  00000-0  46570-4 0  9991,2 52631  53.2182 356.6441 0001521  89.6812 270.4354 15.08836742 87365,6917.89,95.438,540.808,538.703,0.0
52631.0,STARLINK-3794,PAYLOAD,2023-12-10 11:00:05,15.08840434,0.0001554,53.2186,351.2925,88.4794,271.6376,6.2604e-05,7.08e-06,0.0,0 STARLINK-3794,1 52631U 22052AK  23344.45839713  .00000708  00000-0  62604-4 0  9991,2 52631  53.2186 351.2925 0001554  88.4794 271.6376 15.08840434 87549,6917.879,95.438,540.819,538.669,0.0
52631.0,STARLINK-3794,PAYLOAD,2023-12-11 04:29:20,15.08835501,0.0001572,53.2181,348.0187,83.3194,276.7977,2.6621e-05,1.36e-06,0.0,0 STARLINK-3794,1 52631U 22052AK  23345.18704276  .00000136  00000-0  26621-4 0  9991,2 52631  53.2181 348.0187 0001572  83.3194 276.7977 15.08835501 87650,6917.894,95.438,540.847,538.672,0.0
52631.0,STARLINK-3794,PAYLOAD,2023-12-11 07:40:06,15.08837293,0.0001605,53.218,347.4237,69.7109,290.4055,3.8994e-05,3.33e-06,0.0,0 STARLINK-3794,1 52631U 22052AK  23345.31952240  .00000333  00000-0  38994-4 0  9997,2 52631  53.2180 347.4237 0001605  69.7109 290.4055 15.08837293 87301,6917.889,95.438,540.864,538.643,0.0
52631.0,STARLINK-3794,PAYLOAD,2023-12-12 07:30:54,15.08836822,0.0001816,53.2193,342.9629,68.7807,291.3379,3.7501e-05,3.09e-06,0.0,0 STARLINK-3794,1 52631U 22052AK  23346.31312551  .00000309  00000-0  37501-4 0  9999,2 52631  53.2193 342.9629 0001816  68.7807 291.3379 15.08836822 87821,6917.89,95.438,541.011,538.499,0.0
52631.0,STARLINK-3794,PAYLOAD,2023-12-13 07:21:40,15.08842574,0.0001772,53.219,338.5062,71.0731,289.0453,7.8407e-05,9.6e-06,0.0,0 STARLINK-3794,1 52631U 22052AK  23347.30672165  .00000960  00000-0  78407-4 0  9992,2 52631  53.2190 338.5062 0001772  71.0731 289.0453 15.08842574 87608,6917.873,95.437,540.963,538.512,0.0
52631.0,STARLINK-3794,PAYLOAD,2023-12-14 04:01:42,15.08836829,0.0001862,53.2194,334.6388,71.2744,288.845,2.0693e-05,4.1e-07,0.0,0 STARLINK-3794,1 52631U 22052AK  23348.16784804  .00000041  00000-0  20693-4 0  9995,2 52631  53.2194 334.6388 0001862  71.2744 288.8450 15.08836829 88102,6917.89,95.438,541.043,538.467,0.0
52631.0,STARLINK-3794,PAYLOAD,2023-12-14 05:37:05,15.08837764,0.0001879,53.2193,334.3419,70.8,289.3196,2.9226e-05,1.77e-06,0.0,0 STARLINK-3794,1 52631U 22052AK  23348.23408760  .00000177  00000-0  29226-4 0  9998,2 52631  53.2193 334.3419 0001879  70.8000 289.3196 15.08837764 87742,6917.887,95.438,541.052,538.452,0.0
52631.0,STARLINK-3794,PAYLOAD,2023-12-15 03:52:28,15.08845561,0.0001614,53.2184,330.1825,84.9172,275.2004,5.9556e-05,6.6e-06,0.0,0 STARLINK-3794,1 52631U 22052AK  23349.16143949  .00000660  00000-0  59556-4 0  9992,2 52631  53.2184 330.1825 0001614  84.9172 275.2004 15.08845561 88253,6917.863,95.437,540.845,538.612,0.0
52631.0,STARLINK-3794,PAYLOAD,2023-12-15 05:27:51,15.08852163,0.0001644,53.219,329.8805,83.2653,276.8527,2.9971e-05,1.89e-06,0.0,0 STARLINK-3794,1 52631U 22052AK  23349.22767626  .00000189  00000-0  29971-4 0  9997,2 52631  53.2190 329.8805 0001644  83.2653 276.8527 15.08852163 87894,6917.843,95.437,540.846,538.571,0.0
52631.0,STARLINK-3794,PAYLOAD,2023-12-16 03:43:15,15.08837402,0.0002033,53.2191,325.7178,126.5566,233.5613,-1.0462e-05,-4.55e-06,0.0,0 STARLINK-3794,1 52631U 22052AK  23350.15504494 -.00000455  00000-0 -10462-4 0  9996,2 52631  53.2191 325.7178 0002033 126.5566 233.5613 15.08837402 88403,6917.888,95.438,541.16,538.347,0.0
52631.0,STARLINK-3794,PAYLOAD,2023-12-16 05:18:39,15.08835434,0.0001757,53.2192,325.422,110.2487,249.8694,-6.4755e-06,-3.91e-06,0.0,0 STARLINK-3794,1 52631U 22052AK  23350.22128786 -.00000391  00000-0 -64755-5 0  9994,2 52631  53.2192 325.4220 0001757 110.2487 249.8694 15.08835434 88045,6917.894,95.438,540.975,538.544,0.0
52631.0,STARLINK-3794,PAYLOAD,2023-12-17 03:34:03,15.08842277,0.0001583,53.2188,321.2609,109.1127,251.0037,-6.116e-05,-1.261e-05,0.0,0 STARLINK-3794,1 52631U 22052AK  23351.14864735 -.00001261  00000-0 -61160-4 0  9990,2 52631  53.2188 321.2609 0001583 109.1127 251.0037 15.08842277 88184,6917.873,95.437,540.834,538.643,0.0
52631.0,STARLINK-3794,PAYLOAD,2023-12-18 03:24:49,15.08849621,0.0001516,53.2184,316.7959,100.3355,259.7808,0.00019694,2.849e-05,0.0,0 STARLINK-3794,1 52631U 22052AK  23352.14223531  .00002849  00000-0  19694-3 0  9999,2 52631  53.2184 316.7959 0001516 100.3355 259.7808 15.08849621 88708,6917.851,95.437,540.765,538.667,0.0
52631.0,STARLINK-3794,PAYLOAD,2023-12-18 05:00:11,15.08856731,0.0001513,53.2186,316.5004,103.2532,256.8629,0.00024082,3.548e-05,0.0,0 STARLINK-3794,1 52631U 22052AK  23352.20846988  .00003548  00000-0  24082-3 0  9997,2 52631  53.2186 316.5004 0001513 103.2532 256.8629 15.08856731 88715,6917.829,95.436,540.741,538.648,0.0
